STARLINK-3097
1 19448C 21104AS  21326.07867313 -.00849462  00000-0 -30949-2 0  3262
2 19448  53.2178  91.1592 0025346  65.0608 209.2208 15.88018318    16
